[{"OBJECT_NAME":"BRO-10","OBJECT_ID":"2023-174CD","EPOCH":"2026-03-09T23:34:33.500352","MEAN_MOTION":15.73235012,"ECCENTRICITY":0.00030107,"INCLINATION":97.3656,"RA_OF_ASC_NODE":162.3972,"ARG_OF_PERICENTER":146.5418,"MEAN_ANOMALY":213.6037,"EPHEMERIS_TYPE":0,"CLASSIFICATION_TYPE":"U","NORAD_CAT_ID":58331,"ELEMENT_SET_NO":999,"REV_AT_EPOCH":13076,"BSTAR":0.0013973225,"MEAN_MOTION_DOT":0.00196052,"MEAN_MOTION_DDOT":0},{"OBJECT_NAME":"STARLINK-11651 [DTC]","OBJECT_ID":"2025-085A","EPOCH":"2026-03-08T23:26:19.336416","MEAN_MOTION":15.70873048,"ECCENTRICITY":0.00019083,"INCLINATION":42.9996,"RA_OF_ASC_NODE":282.3618,"ARG_OF_PERICENTER":262.9269,"MEAN_ANOMALY":97.1382,"EPHEMERIS_TYPE":0,"CLASSIFICATION_TYPE":"U","NORAD_CAT_ID":63664,"ELEMENT_SET_NO":999,"REV_AT_EPOCH":5014,"BSTAR":0.0020272134,"MEAN_MOTION_DOT":0.00268627,"MEAN_MOTION_DDOT":0}]
